NORAD_CAT_ID,OBJECT_NAME,OBJECT_TYPE,EPOCH,MEAN_MOTION,ECCENTRICITY,INCLINATION,RA_OF_ASC_NODE,ARG_OF_PERICENTER,MEAN_ANOMALY,BSTAR,MEAN_MOTION_DOT,MEAN_MOTION_DDOT,TLE_LINE0,TLE_LINE1,TLE_LINE2,SEMIMAJOR_AXIS,PERIOD,APOGEE,PERIGEE,DECAYED
53744.0,STARLINK-4670,PAYLOAD,2024-05-18 07:23:33,15.08875506,0.0001833,53.2147,348.3134,262.381,97.6974,0.0015672,0.00024767,0.0,0 STARLINK-4670,1 53744U 22107AW  24139.30802387  .00024767  00000-0  15672-2 0  9994,2 53744  53.2147 348.3134 0001833 262.3810  97.6974 15.08875506 94123,6917.772,95.435,540.905,538.369,0.0
53744.0,STARLINK-4670,PAYLOAD,2024-05-18 20:06:38,15.08869494,7.41e-05,53.2154,345.9344,86.1881,273.9195,0.0015938,0.00025189,0.0,0 STARLINK-4670,1 53744U 22107AW  24139.83794720  .00025189  00000-0  15938-2 0  9997,2 53744  53.2154 345.9344 0000741  86.1881 273.9195 15.08869494 94206,6917.79,95.436,540.168,539.143,0.0
53744.0,STARLINK-4670,PAYLOAD,2024-05-19 13:35:52,15.08844984,3.27e-05,53.2173,342.6632,287.3114,72.7842,0.00072344,0.00011246,0.0,0 STARLINK-4670,1 53744U 22107AW  24140.56658452  .00011246  00000-0  72344-3 0  9994,2 53744  53.2173 342.6632 0000327 287.3114  72.7842 15.08844984 94318,6917.865,95.437,539.956,539.504,0.0
53744.0,STARLINK-4670,PAYLOAD,2024-05-19 19:57:25,15.08816799,7.06e-05,53.2168,341.4733,127.1189,232.9867,0.00086685,0.00013526,0.0,0 STARLINK-4670,1 53744U 22107AW  24140.83155056  .00013526  00000-0  86685-3 0  9992,2 53744  53.2168 341.4733 0000706 127.1189 232.9867 15.08816799 94359,6917.951,95.439,540.305,539.328,0.0
53744.0,STARLINK-4670,PAYLOAD,2024-05-20 13:26:41,15.08841153,7.34e-05,53.2169,338.2026,131.7026,228.4029,0.0017356,0.00027443,0.0,0 STARLINK-4670,1 53744U 22107AW  24141.56019967  .00027443  00000-0  17356-2 0  9994,2 53744  53.2169 338.2026 0000734 131.7026 228.4029 15.08841153 95242,6917.877,95.437,540.25,539.234,0.0
53744.0,STARLINK-4670,PAYLOAD,2024-05-20 19:48:13,15.08855147,7.02e-05,53.2172,337.0147,123.2221,236.8838,0.001742,0.00027556,0.0,0 STARLINK-4670,1 53744U 22107AW  24141.82515829  .00027556  00000-0  17420-2 0  9998,2 53744  53.2172 337.0147 0000702 123.2221 236.8838 15.08855147 94502,6917.834,95.437,540.185,539.213,0.0
53744.0,STARLINK-4670,PAYLOAD,2024-05-21 18:03:37,15.08857508,0.0001515,53.2175,332.8514,157.5152,202.5907,0.0010996,0.00017264,0.0,0 STARLINK-4670,1 53744U 22107AW  24142.75251366  .00017264  00000-0  10996-2 0  9990,2 53744  53.2175 332.8514 0001515 157.5152 202.5907 15.08857508 94647,6917.827,95.436,540.74,538.644,0.0
53744.0,STARLINK-4670,PAYLOAD,2024-05-22 21:05:10,15.08847866,4.89e-05,53.2174,327.7948,70.2449,289.8596,0.0004849,7.44e-05,0.0,0 STARLINK-4670,1 53744U 22107AW  24143.87859615  .00007440  00000-0  48490-3 0  9991,2 53744  53.2174 327.7948 0000489  70.2449 289.8596 15.08847866 94816,6917.856,95.437,540.06,539.383,0.0
53744.0,STARLINK-4670,PAYLOAD,2024-05-23 20:55:57,15.08838906,5.57e-05,53.2177,323.3375,106.5257,253.5796,7.464e-05,9.01e-06,0.0,0 STARLINK-4670,1 53744U 22107AW  24144.87219868  .00000901  00000-0  74640-4 0  9994,2 53744  53.2177 323.3375 0000557 106.5257 253.5796 15.08838906 94962,6917.884,95.438,540.134,539.363,0.0
53744.0,STARLINK-4670,PAYLOAD,2024-05-24 11:14:26,15.08839658,5.92e-05,53.2181,320.6618,90.4065,269.6995,0.00014565,2.031e-05,0.0,0 STARLINK-4670,1 53744U 22107AW  24145.46836025  .00002031  00000-0  14565-3 0  9995,2 53744  53.2181 320.6618 0000592  90.4065 269.6995 15.08839658 95835,6917.881,95.438,540.156,539.337,0.0
53744.0,STARLINK-4670,PAYLOAD,2024-05-24 20:46:44,15.08847651,5.64e-05,53.2171,318.8754,105.8774,254.2281,0.00013656,1.887e-05,0.0,0 STARLINK-4670,1 53744U 22107AW  24145.86579625  .00001887  00000-0  13656-3 0  9997,2 53744  53.2171 318.8754 0000564 105.8774 254.2281 15.08847651 95897,6917.857,95.437,540.112,539.332,0.0
53744.0,STARLINK-4670,PAYLOAD,2024-05-25 11:05:12,15.08848072,5.73e-05,53.217,316.1988,106.086,254.0196,0.00023185,3.405e-05,0.0,0 STARLINK-4670,1 53744U 22107AW  24146.46195492  .00003405  00000-0  23185-3 0  9996,2 53744  53.2170 316.1988 0000573 106.0860 254.0196 15.08848072 95201,6917.856,95.437,540.117,539.324,0.0
53744.0,STARLINK-4670,PAYLOAD,2024-05-26 10:56:00,15.0882914,7.07e-05,53.2171,311.7383,81.2814,278.8258,-0.00014795,-2.641e-05,0.0,0 STARLINK-4670,1 53744U 22107AW  24147.45556518 -.00002641  00000-0 -14795-3 0  9996,2 53744  53.2171 311.7383 0000707  81.2814 278.8258 15.08829140 95358,6917.914,95.438,540.268,539.289,0.0
53744.0,STARLINK-4670,PAYLOAD,2024-05-26 17:17:33,15.08829385,7.03e-05,53.2155,310.5512,33.6361,326.4676,-7.2707e-05,-1.444e-05,0.0,0 STARLINK-4670,1 53744U 22107AW  24147.72052616 -.00001444  00000-0 -72707-4 0  9994,2 53744  53.2155 310.5512 0000703  33.6361 326.4676 15.08829385 96171,6917.913,95.438,540.264,539.292,0.0
53744.0,STARLINK-4670,PAYLOAD,2024-05-27 04:25:15,15.08836598,4.52e-05,53.217,308.466,107.7955,252.3086,-7.6402e-07,-3e-06,0.0,0 STARLINK-4670,1 53744U 22107AW  24148.18420339 -.00000300  00000-0 -76402-6 0  9994,2 53744  53.2170 308.4660 0000452 107.7955 252.3086 15.08836598 95468,6917.891,95.438,540.068,539.443,0.0
53744.0,STARLINK-4670,PAYLOAD,2024-05-28 10:37:34,15.08842916,7.85e-05,53.2173,302.8144,60.708,299.399,0.00015894,2.243e-05,0.0,0 STARLINK-4670,1 53744U 22107AW  24149.44276091  .00002243  00000-0  15894-3 0  9999,2 53744  53.2173 302.8144 0000785  60.7080 299.3990 15.08842916 95659,6917.871,95.437,540.28,539.193,0.0
53744.0,STARLINK-4670,PAYLOAD,2024-05-28 13:48:20,15.08838396,6.73e-05,53.2178,302.2191,70.9056,289.2009,0.00010718,1.418e-05,0.0,0 STARLINK-4670,1 53744U 22107AW  24149.57524220  .00001418  00000-0  10718-3 0  9996,2 53744  53.2178 302.2191 0000673  70.9056 289.2009 15.08838396 96457,6917.885,95.438,540.216,539.285,0.0
53744.0,STARLINK-4670,PAYLOAD,2024-05-28 15:23:44,15.08836739,5.85e-05,53.2173,301.9215,75.9547,284.151,9.2001e-05,1.177e-05,0.0,0 STARLINK-4670,1 53744U 22107AW  24149.64148333  .00001177  00000-0  92001-4 0  9999,2 53744  53.2173 301.9215 0000585  75.9547 284.1510 15.08836739 96468,6917.89,95.438,540.16,539.351,0.0
53744.0,STARLINK-4670,PAYLOAD,2024-05-29 13:39:08,15.08840167,7.97e-05,53.2177,297.7601,111.0118,249.096,1.5521e-05,-4.1e-07,0.0,0 STARLINK-4670,1 53744U 22107AW  24150.56884376 -.00000041  00000-0  15521-4 0  9998,2 53744  53.2177 297.7601 0000797 111.0118 249.0960 15.08840167 96609,6917.88,95.438,540.296,539.194,0.0
53744.0,STARLINK-4670,PAYLOAD,2024-05-29 16:49:54,15.08839043,6.77e-05,53.2176,297.1638,91.8356,268.2714,5.6493e-06,-1.98e-06,0.0,0 STARLINK-4670,1 53744U 22107AW  24150.70132447 -.00000198  00000-0  56493-5 0  9996,2 53744  53.2176 297.1638 0000677  91.8356 268.2714 15.08839043 95844,6917.883,95.438,540.217,539.28,0.0
53744.0,STARLINK-4670,PAYLOAD,2024-05-30 13:29:55,15.08836721,6.68e-05,53.2179,293.301,91.2608,268.8461,9.0071e-05,1.146e-05,0.0,0 STARLINK-4670,1 53744U 22107AW  24151.56244530  .00001146  00000-0  90071-4 0  9990,2 53744  53.2179 293.3010 0000668  91.2608 268.8461 15.08836721 96759,6917.89,95.438,540.218,539.293,0.0
53744.0,STARLINK-4670,PAYLOAD,2024-05-30 15:05:18,15.08837043,6.63e-05,53.2179,293.0036,88.4704,271.6364,9.1627e-05,1.171e-05,0.0,0 STARLINK-4670,1 53744U 22107AW  24151.62868533  .00001171  00000-0  91627-4 0  9998,2 53744  53.2179 293.0036 0000663  88.4704 271.6364 15.08837043 96767,6917.889,95.438,540.213,539.296,0.0
53744.0,STARLINK-4670,PAYLOAD,2024-05-31 13:20:42,15.08839476,6.71e-05,53.2179,288.8406,85.0949,275.012,8.4344e-05,1.055e-05,0.0,0 STARLINK-4670,1 53744U 22107AW  24152.55604597  .00001055  00000-0  84344-4 0  9998,2 53744  53.2179 288.8406 0000671  85.0949 275.0120 15.08839476 96123,6917.882,95.438,540.211,539.283,0.0
53744.0,STARLINK-4670,PAYLOAD,2024-05-31 14:56:05,15.08840305,6.75e-05,53.2179,288.5433,81.9475,278.1594,8.9933e-05,1.144e-05,0.0,0 STARLINK-4670,1 53744U 22107AW  24152.62228545  .00001144  00000-0  89933-4 0  9999,2 53744  53.2179 288.5433 0000675  81.9475 278.1594 15.08840305 96912,6917.879,95.438,540.211,539.277,0.0
53744.0,STARLINK-4670,PAYLOAD,2024-05-31 19:42:14,15.08844901,6.67e-05,53.2179,287.6522,76.169,283.9376,0.00012776,1.747e-05,0.0,0 STARLINK-4670,1 53744U 22107AW  24152.82100150  .00001747  00000-0  12776-3 0  9991,2 53744  53.2179 287.6522 0000667  76.1690 283.9376 15.08844901 96948,6917.865,95.437,540.192,539.269,0.0
53744.0,STARLINK-4670,PAYLOAD,2024-06-01 13:11:29,15.08834846,8.01e-05,53.2176,284.3803,102.1923,257.9159,9.3358e-05,1.198e-05,0.0,0 STARLINK-4670,1 53744U 22107AW  24153.54964893  .00001198  00000-0  93358-4 0  9999,2 53744  53.2176 284.3803 0000801 102.1923 257.9159 15.08834846 97050,6917.896,95.438,540.315,539.207,0.0
53744.0,STARLINK-4670,PAYLOAD,2024-06-01 17:57:38,15.08840328,5.4e-05,53.2177,283.4868,86.5103,273.5951,1.7663e-05,-6e-08,0.0,0 STARLINK-4670,1 53744U 22107AW  24153.74836763 -.00000006  00000-0  17663-4 0  9998,2 53744  53.2177 283.4868 0000540  86.5103 273.5951 15.08840328 96300,6917.879,95.438,540.118,539.371,0.0
53744.0,STARLINK-4670,PAYLOAD,2024-06-02 14:37:39,15.08843591,5.71e-05,53.2158,279.626,111.3642,248.7411,3.0494e-05,1.98e-06,0.0,0 STARLINK-4670,1 53744U 22107AW  24154.60948422  .00000198  00000-0  30494-4 0  9998,2 53744  53.2158 279.6260 0000571 111.3642 248.7411 15.08843591 97212,6917.869,95.437,540.129,539.339,0.0
53744.0,STARLINK-4670,PAYLOAD,2024-06-03 01:45:17,15.08888117,8.99e-05,53.2187,277.5383,254.3697,105.7196,0.00042526,6.496e-05,0.0,0 STARLINK-4670,1 53744U 22107AW  24155.07311539  .00006496  00000-0  42526-3 0  9998,2 53744  53.2187 277.5383 0000899 254.3697 105.7196 15.08888117 96504,6917.733,95.435,540.22,538.976,0.0
53744.0,STARLINK-4670,PAYLOAD,2024-06-03 14:28:26,15.0883801,8.42e-05,53.2191,275.1608,96.022,264.0868,1.9783e-05,2.7e-07,0.0,0 STARLINK-4670,1 53744U 22107AW  24155.60308290  .00000027  00000-0  19783-4 0  9991,2 53744  53.2191 275.1608 0000842  96.0220 264.0868 15.08838010 97361,6917.886,95.438,540.334,539.169,0.0
